[{"OBJECT_NAME":"VSP RF B1","OBJECT_ID":"2024-043AR","EPOCH":"2026-03-09T22:40:29.479296","MEAN_MOTION":15.26694159,"ECCENTRICITY":0.00102608,"INCLINATION":97.5446,"RA_OF_ASC_NODE":204.7052,"ARG_OF_PERICENTER":220.7435,"MEAN_ANOMALY":139.3037,"EPHEMERIS_TYPE":0,"CLASSIFICATION_TYPE":"U","NORAD_CAT_ID":59137,"ELEMENT_SET_NO":999,"REV_AT_EPOCH":11187,"BSTAR":0.00024406819,"MEAN_MOTION_DOT":6.341e-5,"MEAN_MOTION_DDOT":0},{"OBJECT_NAME":"STARLINK-32921","OBJECT_ID":"2025-027P","EPOCH":"2026-03-09T05:32:10.918752","MEAN_MOTION":15.27612444,"ECCENTRICITY":0.00014204,"INCLINATION":42.9985,"RA_OF_ASC_NODE":131.3284,"ARG_OF_PERICENTER":183.4353,"MEAN_ANOMALY":176.6489,"EPHEMERIS_TYPE":0,"CLASSIFICATION_TYPE":"U","NORAD_CAT_ID":62920,"ELEMENT_SET_NO":999,"REV_AT_EPOCH":6147,"BSTAR":0.0010649414,"MEAN_MOTION_DOT":0.00029188,"MEAN_MOTION_DDOT":0}]
